start=new Date('2022-03-30T00:00:00.000Z').valueOf();
sats=[{"MEAN_MOTION_DOT":"0.00000670","EPOCH":"2022-03-29T22:24:52.179264","TLE_LINE1":"1 44930U 20001S   22088.93393726  .00000670  00000-0  63878-4 0  9994","MEAN_MOTION_DDOT":"0.0000000000000","BSTAR":"0.00006387800000","OBJECT_ID":"2020-001S","REV_AT_EPOCH":"12269","REF_FRAME":"TEME","PERIAPSIS":"546.110","SEMIMAJOR_AXIS":"6925.348","ARG_OF_PERICENTER":"53.0800","TLE_LINE2":"2 44930  53.0547 334.4168 0001593  53.0800 307.0335 15.06400253122696","ELEMENT_SET_NO":"999","GP_ID":"200017245","RA_OF_ASC_NODE":"334.4168","RCS_SIZE":"LARGE","SITE":"AFETR","CENTER_NAME":"EARTH","CLASSIFICATION_TYPE":"U","PERIOD":"95.592","MEAN_MOTION":"15.06400253","LAUNCH_DATE":"2020-01-07","DECAY_DATE":null,"INCLINATION":"53.0547","ECCENTRICITY":"0.00015930","OBJECT_NAME":"STARLINK-1123","OBJECT_TYPE":"PAYLOAD","FILE":"3379484","MEAN_ELEMENT_THEORY":"SGP4","MEAN_ANOMALY":"307.0335","TIME_SYSTEM":"UTC","NORAD_CAT_ID":"44930","APOAPSIS":"548.316","EPHEMERIS_TYPE":"0","COUNTRY_CODE":"US"},{"TIME_SYSTEM":"UTC","APOAPSIS":"534.717","NORAD_CAT_ID":"44931","COUNTRY_CODE":"US","EPHEMERIS_TYPE":"0","OBJECT_TYPE":"PAYLOAD","OBJECT_NAME":"STARLINK-1128","MEAN_ANOMALY":"350.7182","FILE":"3379484","MEAN_ELEMENT_THEORY":"SGP4","PERIOD":"95.321","MEAN_MOTION":"15.10679572","DECAY_DATE":null,"ECCENTRICITY":"0.00008520","INCLINATION":"53.0543","LAUNCH_DATE":"2020-01-07","GP_ID":"200017495","RA_OF_ASC_NODE":"331.2472","CENTER_NAME":"EARTH","CLASSIFICATION_TYPE":"U","RCS_SIZE":"LARGE","SITE":"AFETR","SEMIMAJOR_AXIS":"6912.263","TLE_LINE2":"2 44931  53.0543 331.2472 0000852   9.3824 350.7182 15.10679572123483","ELEMENT_SET_NO":"999","ARG_OF_PERICENTER":"9.3824","OBJECT_ID":"2020-001T","PERIAPSIS":"533.539","REV_AT_EPOCH":"12348","REF_FRAME":"TEME","TLE_LINE1":"1 44931U 20001T   22088.94821111 -.00003101  00000-0 -16776-3 0  9998","EPOCH":"2022-03-29T22:45:25.439904","MEAN_MOTION_DDOT":"0.0000000000000","BSTAR":"-0.00016776000000","MEAN_MOTION_DOT":"-0.00003101"},{"LAUNCH_DATE":"2020-01-07","ECCENTRICITY":"0.00017570","INCLINATION":"53.0548","DECAY_DATE":null,"MEAN_MOTION":"15.06383838","PERIOD":"95.593","SITE":"AFETR","RCS_SIZE":"LARGE","CENTER_NAME":"EARTH","CLASSIFICATION_TYPE":"U","RA_OF_ASC_NODE":"334.4757","GP_ID":"200018247","EPHEMERIS_TYPE":"0","COUNTRY_CODE":"US","NORAD_CAT_ID":"44932","APOAPSIS":"548.480","TIME_SYSTEM":"UTC","MEAN_ELEMENT_THEORY":"SGP4","FILE":"3379484","MEAN_ANOMALY":"302.9116","OBJECT_NAME":"STARLINK-1130","OBJECT_TYPE":"PAYLOAD","MEAN_MOTION_DDOT":"0.0000000000000","BSTAR":"-0.00025403000000","EPOCH":"2022-03-29T22:08:57.208704","TLE_LINE1":"1 44932U 20001U   22088.92288436 -.00004062  00000-0 -25403-3 0  9998","MEAN_MOTION_DOT":"-0.00004062","ARG_OF_PERICENTER":"57.2042","ELEMENT_SET_NO":"999","TLE_LINE2":"2 44932  53.0548 334.4757 0001757  57.2042 302.9116 15.06383838123926","SEMIMAJOR_AXIS":"6925.398","REF_FRAME":"TEME","REV_AT_EPOCH":"12392","PERIAPSIS":"546.046","OBJECT_ID":"2020-001U"},{"ARG_OF_PERICENTER":"70.2706","TLE_LINE2":"2 44933  53.0555 334.3625 0001611  70.2706 289.8456 15.06382049123988","ELEMENT_SET_NO":"999","SEMIMAJOR_AXIS":"6925.404","REV_AT_EPOCH":"12398","REF_FRAME":"TEME","PERIAPSIS":"546.153","OBJECT_ID":"2020-001V","BSTAR":"-0.00022294000000","MEAN_MOTION_DDOT":"0.0000000000000","EPOCH":"2022-03-29T22:46:06.305376","TLE_LINE1":"1 44933U 20001V   22088.94868409 -.00003599  00000-0 -22294-3 0  9994","MEAN_MOTION_DOT":"-0.00003599","EPHEMERIS_TYPE":"0","COUNTRY_CODE":"US","TIME_SYSTEM":"UTC","NORAD_CAT_ID":"44933","APOAPSIS":"548.384","FILE":"3379484","MEAN_ELEMENT_THEORY":"SGP4","MEAN_ANOMALY":"289.8456","OBJECT_NAME":"STARLINK-1144","OBJECT_TYPE":"PAYLOAD","LAUNCH_DATE":"2020-01-07","DECAY_DATE":null,"INCLINATION":"53.0555","ECCENTRICITY":"0.00016110","PERIOD":"95.593","MEAN_MOTION":"15.06382049","RCS_SIZE":"LARGE","SITE":"AFETR","CLASSIFICATION_TYPE":"U","CENTER_NAME":"EARTH","GP_ID":"200018495","RA_OF_ASC_NODE":"334.3625"},{"MEAN_ANOMALY":"285.0696","MEAN_ELEMENT_THEORY":"SGP4","FILE":"3379484","OBJECT_TYPE":"PAYLOAD","OBJECT_NAME":"STARLINK-1071","COUNTRY_CODE":"US","EPHEMERIS_TYPE":"0","NORAD_CAT_ID":"44934","APOAPSIS":"548.254","TIME_SYSTEM":"UTC","CLASSIFICATION_TYPE":"U","CENTER_NAME":"EARTH","SITE":"AFETR","RCS_SIZE":"LARGE","RA_OF_ASC_NODE":"314.6000","GP_ID":"200016746","INCLINATION":"53.0552","ECCENTRICITY":"0.00014890","DECAY_DATE":null,"LAUNCH_DATE":"2020-01-07","MEAN_MOTION":"15.06396871","PERIOD":"95.592","PERIAPSIS":"546.192","REF_FRAME":"TEME","REV_AT_EPOCH":"12296","OBJECT_ID":"2020-001W","ELEMENT_SET_NO":"999","TLE_LINE2":"2 44934  53.0552 314.6000 0001489  75.0458 285.0696 15.06396871122963","ARG_OF_PERICENTER":"75.0458","SEMIMAJOR_AXIS":"6925.358","MEAN_MOTION_DOT":"-0.00000785","BSTAR":"-0.00003382100000","MEAN_MOTION_DDOT":"0.0000000000000","TLE_LINE1":"1 44934U 20001W   22088.89522819 -.00000785  00000-0 -33821-4 0  9994","EPOCH":"2022-03-29T21:29:07.715616"},{"MEAN_MOTION_DOT":"-0.00002576","EPOCH":"2022-03-29T20:57:17.803008","TLE_LINE1":"1 44937U 20001Z   22088.87312272 -.00002576  00000-0 -15415-3 0  9993","MEAN_MOTION_DDOT":"0.0000000000000","BSTAR":"-0.00015415000000","OBJECT_ID":"2020-001Z","REV_AT_EPOCH":"12296","REF_FRAME":"TEME","PERIAPSIS":"546.217","SEMIMAJOR_AXIS":"6925.382","ARG_OF_PERICENTER":"72.2249","TLE_LINE2":"2 44937  53.0549 314.6995 0001488  72.2249 287.8902 15.06389027122966","ELEMENT_SET_NO":"999","GP_ID":"200016996","RA_OF_ASC_NODE":"314.6995","RCS_SIZE":"LARGE","SITE":"AFETR","CLASSIFICATION_TYPE":"U","CENTER_NAME":"EARTH","PERIOD":"95.593","MEAN_MOTION":"15.06389027","LAUNCH_DATE":"2020-01-07","DECAY_DATE":null,"ECCENTRICITY":"0.00014880","INCLINATION":"53.0549","OBJECT_NAME":"STARLINK-1079","OBJECT_TYPE":"PAYLOAD","FILE":"3379484","MEAN_ELEMENT_THEORY":"SGP4","MEAN_ANOMALY":"287.8902","TIME_SYSTEM":"UTC","NORAD_CAT_ID":"44937","APOAPSIS":"548.278","EPHEMERIS_TYPE":"0","COUNTRY_CODE":"US"},{"MEAN_ANOMALY":"300.8831","MEAN_ELEMENT_THEORY":"SGP4","FILE":"3379484","OBJECT_TYPE":"PAYLOAD","OBJECT_NAME":"STARLINK-1082","COUNTRY_CODE":"US","EPHEMERIS_TYPE":"0","APOAPSIS":"548.442","NORAD_CAT_ID":"44938","TIME_SYSTEM":"UTC","CENTER_NAME":"EARTH","CLASSIFICATION_TYPE":"U","RCS_SIZE":"LARGE","SITE":"AFETR","RA_OF_ASC_NODE":"314.5479","GP_ID":"200017748","ECCENTRICITY":"0.00017820","INCLINATION":"53.0548","DECAY_DATE":null,"LAUNCH_DATE":"2020-01-07","MEAN_MOTION":"15.06401821","PERIOD":"95.592","PERIAPSIS":"545.974","REF_FRAME":"TEME","REV_AT_EPOCH":"12296","OBJECT_ID":"2020-001AA","ELEMENT_SET_NO":"999","TLE_LINE2":"2 44938  53.0548 314.5479 0001782  59.2334 300.8831 15.06401821122963","ARG_OF_PERICENTER":"59.2334","SEMIMAJOR_AXIS":"6925.343","MEAN_MOTION_DOT":"0.00002433","BSTAR":"0.00018217000000","MEAN_MOTION_DDOT":"0.0000000000000","TLE_LINE1":"1 44938U 20001AA  22088.90629268  .00002433  00000-0  18217-3 0  9997","EPOCH":"2022-03-29T21:45:03.687552"},{"TLE_LINE1":"1 44939U 20001AB  22088.91366318 -.00001467  00000-0 -79611-4 0  9997","EPOCH":"2022-03-29T21:55:40.498752","MEAN_MOTION_DDOT":"0.0000000000000","BSTAR":"-0.00007961100000","MEAN_MOTION_DOT":"-0.00001467","SEMIMAJOR_AXIS":"6925.365","TLE_LINE2":"2 44939  53.0540 314.5137 0001665  57.6860 302.4290 15.06394596122960","ELEMENT_SET_NO":"999","ARG_OF_PERICENTER":"57.6860","OBJECT_ID":"2020-001AB","PERIAPSIS":"546.077","REV_AT_EPOCH":"12296","REF_FRAME":"TEME","PERIOD":"95.592","MEAN_MOTION":"15.06394596","DECAY_DATE":null,"INCLINATION":"53.0540","ECCENTRICITY":"0.00016650","LAUNCH_DATE":"2020-01-07","GP_ID":"200017996","RA_OF_ASC_NODE":"314.5137","CENTER_NAME":"EARTH","CLASSIFICATION_TYPE":"U","RCS_SIZE":"LARGE","SITE":"AFETR","TIME_SYSTEM":"UTC","NORAD_CAT_ID":"44939","APOAPSIS":"548.383","COUNTRY_CODE":"US","EPHEMERIS_TYPE":"0","OBJECT_TYPE":"PAYLOAD","OBJECT_NAME":"STARLINK-1083","MEAN_ANOMALY":"302.4290","FILE":"3379484","MEAN_ELEMENT_THEORY":"SGP4"},{"MEAN_MOTION_DOT":"0.00001108","TLE_LINE1":"1 44940U 20001AC  22088.92472111  .00001108  00000-0  93266-4 0  9991","EPOCH":"2022-03-29T22:11:35.903904","MEAN_MOTION_DDOT":"0.0000000000000","BSTAR":"0.00009326600000","OBJECT_ID":"2020-001AC","PERIAPSIS":"546.054","REV_AT_EPOCH":"12296","REF_FRAME":"TEME","SEMIMAJOR_AXIS":"6925.342","TLE_LINE2":"2 44940  53.0559 314.4635 0001664  55.2794 304.8351 15.06402200122969","ELEMENT_SET_NO":"999","ARG_OF_PERICENTER":"55.2794","GP_ID":"200017246","RA_OF_ASC_NODE":"314.4635","CENTER_NAME":"EARTH","CLASSIFICATION_TYPE":"U","SITE":"AFETR","RCS_SIZE":"LARGE","PERIOD":"95.592","MEAN_MOTION":"15.06402200","DECAY_DATE":null,"ECCENTRICITY":"0.00016640","INCLINATION":"53.0559","LAUNCH_DATE":"2020-01-07","OBJECT_TYPE":"PAYLOAD","OBJECT_NAME":"STARLINK-1091","MEAN_ANOMALY":"304.8351","FILE":"3379484","MEAN_ELEMENT_THEORY":"SGP4","TIME_SYSTEM":"UTC","APOAPSIS":"548.359","NORAD_CAT_ID":"44940","COUNTRY_CODE":"US","EPHEMERIS_TYPE":"0"},{"OBJECT_ID":"2020-001AD","PERIAPSIS":"546.084","REV_AT_EPOCH":"12296","REF_FRAME":"TEME","SEMIMAJOR_AXIS":"6925.365","TLE_LINE2":"2 44941  53.0555 314.6626 0001655  56.4524 303.6623 15.06394550122969","ELEMENT_SET_NO":"999","ARG_OF_PERICENTER":"56.4524","MEAN_MOTION_DOT":"0.00000719","TLE_LINE1":"1 44941U 20001AD  22088.88049419  .00000719  00000-0  67157-4 0  9995","EPOCH":"2022-03-29T21:07:54.698016","MEAN_MOTION_DDOT":"0.0000000000000","BSTAR":"0.00006715700000","OBJECT_TYPE":"PAYLOAD","OBJECT_NAME":"STARLINK-1094","MEAN_ANOMALY":"303.6623","FILE":"3379484","MEAN_ELEMENT_THEORY":"SGP4","TIME_SYSTEM":"UTC","NORAD_CAT_ID":"44941","APOAPSIS":"548.376","COUNTRY_CODE":"US","EPHEMERIS_TYPE":"0","GP_ID":"200017496","RA_OF_ASC_NODE":"314.6626","CENTER_NAME":"EARTH","CLASSIFICATION_TYPE":"U","SITE":"AFETR","RCS_SIZE":"LARGE","PERIOD":"95.592","MEAN_MOTION":"15.06394550","DECAY_DATE":null,"INCLINATION":"53.0555","ECCENTRICITY":"0.00016550","LAUNCH_DATE":"2020-01-07"}];
